[{"OBJECT_NAME":"ONEWEB-0306","OBJECT_ID":"2021-083C","EPOCH":"2026-03-09T19:40:52.470336","MEAN_MOTION":13.1868643,"ECCENTRICITY":0.00019615,"INCLINATION":87.9253,"RA_OF_ASC_NODE":355.177,"ARG_OF_PERICENTER":83.756,"MEAN_ANOMALY":276.3795,"EPHEMERIS_TYPE":0,"CLASSIFICATION_TYPE":"U","NORAD_CAT_ID":49188,"ELEMENT_SET_NO":999,"REV_AT_EPOCH":21692,"BSTAR":-3.3693105e-5,"MEAN_MOTION_DOT":0,"MEAN_MOTION_DDOT":0},{"OBJECT_NAME":"COSMOS 2499 DEB","OBJECT_ID":"2014-028AR","EPOCH":"2026-03-08T16:30:44.028576","MEAN_MOTION":12.83466511,"ECCENTRICITY":0.02314502,"INCLINATION":82.4562,"RA_OF_ASC_NODE":320.1068,"ARG_OF_PERICENTER":234.9243,"MEAN_ANOMALY":122.9961,"EPHEMERIS_TYPE":0,"CLASSIFICATION_TYPE":"U","NORAD_CAT_ID":55729,"ELEMENT_SET_NO":999,"REV_AT_EPOCH":14716,"BSTAR":0.00025511886,"MEAN_MOTION_DOT":7.8e-7,"MEAN_MOTION_DDOT":0}]
